UNKNOWN                 
1 81036U          23023.43287797  .00004475  00000+0  93608-2 0  9992
2 81036  65.9797 177.1029 2686556  66.7005 319.2781  9.16978775305235
UNKNOWN                 
1 81052U          23019.73291485  .00006853  00000+0  22626-2 0  9991
2 81052  65.7789 138.6631 0625051  98.5517 268.6838 13.63573897455076
UNKNOWN                 
1 81069U          23022.26619183  .00005032  00000+0  79439-2 0  9992
2 81069 100.3276 224.1311 0063403 100.7025 260.1254 13.49506646373007
UNKNOWN                 
1 81073U          23008.64623694  .00051916  00000+0  50551-1 0  9990
2 81073  61.6486 121.8921 4694043 248.8261  55.9371  5.93082052537859
UNKNOWN                 
1 81078U          23023.27030719  .00000454  00000+0  14743-1 0  9995
2 81078  65.1116 127.0953 0195863 237.7646 152.9918 11.21957915376305
UNKNOWN                 
1 81111U          23022.61659032  .00041496  00000+0  48337-2 0  9993
2 81111  62.8277 232.7786 4271844 316.7106  16.6879  6.89153870195419
UNKNOWN                 
1 81123U 70025    23015.47212937  .00001571  00000+0  16100-2 0  9998
2 81123 100.0485  25.6364 0003162 284.7854  75.2944 13.78145591459789
UNKNOWN                 
1 81134U          23023.13603772  .00000171  00000+0  60638-3 0  9990
2 81134  90.2683 339.6264 0022586 269.4907  90.3623 12.92461184326350
UNKNOWN                 
1 81161U          23023.51014458  .00003204  00000+0  35506-2 0  9994
2 81161 100.3858 122.6761 0058402  67.8871 292.8459 13.71817928411388
UNKNOWN                 
1 81219U 81053    23023.46533190  .00000575  00000+0  53880-3 0  9992
2 81219  82.9253  76.7833 0019851 307.5508  52.3847 13.80054755462018
UNKNOWN                 
1 81221U          23023.57040111  .00004531  00000+0  20387-2 0  9997
2 81221  98.8857 328.4547 0110177 155.5133 205.1332 14.19609342374395
UNKNOWN                 
1 81228U          23012.59295385  .00011004  00000+0  47760-2 0  9996
2 81228  70.5312 107.4652 0086583 135.5492 225.2623 14.22324370473740
UNKNOWN                 
1 81247U 81053    23023.29383843  .00033117  00000+0  71389-2 0  9993
2 81247  83.2424  22.2030 0023402 260.1955  99.6606 14.58075610483104
UNKNOWN                 
1 81254U 70025    23023.22235523  .00003770  00000+0  28311-2 0  9991
2 81254 100.3720 298.2273 0076456 328.5668  31.0931 13.93807787465605
UNKNOWN                 
1 81264U          23023.35567787  .00012263  00000+0  21898-2 0  9992
2 81264  99.4314  68.7465 0094934 311.5282  47.7801 14.64197192454688
UNKNOWN                 
1 81279U          23023.32284977  .00003918  00000+0  16250-2 0  9995
2 81279  98.1318 157.3221 0221027 219.6064 138.8785 14.14696732313237
UNKNOWN                 
1 81301U          23023.04541199  .00000346  00000+0  42080-3 0  9995
2 81301  66.7599 292.6581 0094101 223.0567 150.0433 13.75668386461235
UNKNOWN                 
1 81311U 90105    23022.78683164  .00001248  00000+0  27470-3 0  9998
2 81311  98.8003  14.6995 0138742  95.7740  26.3824 14.53590560486174
UNKNOWN                 
1 81317U 80089    23023.28240840  .00000412  00000+0  80136-3 0  9990
2 81317  67.1391 336.8918 0210867  49.3425  99.7608 13.37284176447600
UNKNOWN                 
1 81323U          23018.35844294  .00008190  00000+0  16784-2 0  9995
2 81323  65.7788  15.9686 0476620 148.2914 214.7841 14.08169969962343
UNKNOWN                 
1 81329U          23022.34608628  .00002408  00000+0  93254-3 0  9998
2 81329  65.8287   8.0897 0864383 146.1815 337.0507 13.14094508476996
UNKNOWN                 
1 81341U          23023.16319116  .00003082  00000+0  77584-2 0  9990
2 81341  99.5022  94.4189 0437208  12.5297 348.6272 12.90395360387111
UNKNOWN                 
1 81342U          23021.69989333  .00005676  00000+0  31568-2 0  9994
2 81342  70.9007  17.4146 0152016 153.5453 207.3529 14.05748590468680
UNKNOWN                 
1 81343U          23022.28901151  .00005896  00000+0  65191-3 0  9997
2 81343  85.8758  35.1782 0013304  74.6622 285.6071 14.87164748296675
UNKNOWN                 
1 81357U          23022.87705524  .00030099  00000+0  24089-2 0  9996
2 81357  97.4581 256.0706 0172229 337.9442  21.4425 14.89137616378340
UNKNOWN                 
1 81359U          23023.46577382  .00001406  00000+0  14442-2 0  9995
2 81359  66.7998  48.8135 0123827 320.7724  38.4421 13.75845215460294
UNKNOWN                 
1 81366U          23023.44166510  .00002391  00000+0  83611-3 0  9997
2 81366  65.8855  36.7271 0747892 227.8806 125.6322 13.39893413924683
UNKNOWN                 
1 81371U          23022.95643477  .00005512  00000+0  11169-2 0  9996
2 81371  98.9016  28.5666 0085709  16.7991 343.6014 14.59384667487463
UNKNOWN                 
1 81374U          23022.84064310  .00018750  00000+0  57276-2 0  9997
2 81374  65.7297 328.5577 0045933 339.7951  20.1324 14.41292746431773
UNKNOWN                 
1 81380U          23023.13131049  .00024718  00000+0  68536-2 0  9993
2 81380  99.8563 341.1873 0001752 265.2013  94.8974 14.46521249466053
UNKNOWN                 
1 81386U          23019.54526873  .00005324  00000+0  23897-2 0  9995
2 81386  71.0551  96.8321 0122395 295.4577  63.3925 14.18927271473304
UNKNOWN                 
1 81390U          23021.70131499  .00000529  00000+0  43768-2 0  9998
2 81390 103.1203 188.1217 0182273 191.3521 168.3394 12.34910899369688
UNKNOWN                 
1 81391U          23018.47005055  .00012606  00000+0  53393-2 0  9991
2 81391  81.2049 292.3393 0012990 317.3063  42.7105 14.25310497429913
UNKNOWN                 
1 81392U          23022.63206356  .00004160  00000+0  47429-2 0  9991
2 81392 100.4153 262.8778 0041902 186.5694 202.6906 13.70245490457101
UNKNOWN                 
1 81402U          23022.53926912  .00016876  00000+0  60743-2 0  9990
2 81402  98.6997  56.1476 0004770 298.7979  61.2726 14.33764968294812
UNKNOWN                 
1 81405U          23018.80808304  .00002143  00000+0  17679-2 0  9994
2 81405  99.5503  38.9368 0168579 158.9464 201.8738 13.83854176415073
UNKNOWN                 
1 81406U          23020.35971929  .00002300  00000+0  10352-2 0  9998
2 81406  65.8159   1.1985 0878682  66.7066 302.3936 13.05736075395290
UNKNOWN                 
1 81409U 87068    23022.91330601  .00021921  00000+0  71697-2 0  9999
2 81409  82.6660   8.7168 0059970  43.6497 316.9414 14.37360552477625
UNKNOWN                 
1 81418U          23022.37509934  .00002059  00000+0  40671-2 0  9996
2 81418 100.2932 170.9768 0059068 288.7869  70.6853 13.36061719258084
UNKNOWN                 
1 81425U          23023.18218357  .00003085  00000+0  35990-2 0  9998
2 81425  99.4581 110.5952 0078655 302.3667  56.9883 13.68056538297494
UNKNOWN                 
1 81427U          23014.99506334  .00001094  00000+0  69557-3 0  9999
2 81427  98.8484 276.9409 0087815 138.2707 222.5202 14.03899804402499
UNKNOWN                 
1 81438U          23023.23740777  .00003171  00000+0  52372-2 0  9993
2 81438 100.3058 207.4049 0050731 130.6184 229.9375 13.47270481449560
UNKNOWN                 
1 81439U          23023.38458593  .00000163  00000+0  60262-3 0  9998
2 81439  67.1624  18.6238 0599704 133.0218 232.2677 12.61587251128843
UNKNOWN                 
1 81449U 85042    23023.30396924  .00013046  00000+0  41218-2 0  9992
2 81449  66.8081 356.5762 0050352 239.5509 120.0616 14.39652080479609
UNKNOWN                 
1 81478U          23023.18529146  .00004015  00000+0  17784-2 0  9992
2 81478  99.0273 264.9096 0168849 142.6741 349.0829 14.16361510473082
UNKNOWN                 
1 81488U 75052    23023.50348644  .00000316  00000+0  51788-3 0  9993
2 81488 100.1216 223.1076 0045031  90.1697 299.8358 13.55665305453744
UNKNOWN                 
1 81497U          23022.90425587  .00006127  00000+0  70052-2 0  9999
2 81497 100.3133 177.3437 0033136 180.5564 333.7334 13.69955215 71111
UNKNOWN                 
1 81499U          23022.94419738  .00004439  00000+0  14864-2 0  9999
2 81499  74.0533  14.9838 0005012 293.7653  66.2975 14.37624604330368
UNKNOWN                 
1 81509U          23012.02501827  .01161582  00000+0  43967-1 0  9999
2 81509  98.6867 221.5884 0014379 329.1472  30.8915 15.24126058310296
UNKNOWN                 
1 81521U          23023.42956981  .00078502  00000+0  10772-1 0  9990
2 81521  99.6829 265.0486 0017612  27.9786 146.5038 14.77865400487029
UNKNOWN                 
1 81535U          23023.40913804  .00001494  00000+0  67652-3 0  9997
2 81535  98.1241 187.3360 0249244 308.8861  49.0313 14.08190252238731
UNKNOWN                 
1 81536U 73086    23023.02591000  .00000647  00000+0  43072-2 0  9998
2 81536 102.0448 218.2283 0018977 147.6360   7.2237 12.54313590419490
UNKNOWN                 
1 81537U 93016    23023.01794613  .00000510  00000+0  33069-3 0  9993
2 81537  71.0403 128.9900 0080803 299.5270  59.7808 14.05852151472162
UNKNOWN                 
1 81546U          23016.13757109  .00090175  00000+0  65226-2 0  9993
2 81546  66.8027 322.9382 0012235 116.5034 243.7358 15.03419960971835
UNKNOWN                 
1 81552U          23023.12133317  .00000863  00000+0  19776-2 0  9990
2 81552  99.0637  88.3558 0266265  24.9506 336.4216 13.15992976440428
UNKNOWN                 
1 81569U          23022.57116050  .00000338  00000+0  15450-2 0  9993
2 81569  28.0781 346.6458 0313092 295.9138  60.9425 12.46218895421096
UNKNOWN                 
1 81579U          23022.98772515  .00021137  00000+0  11346-1 0  9992
2 81579 100.0220  45.7052 0210239 145.1912 216.3211 14.02307382463492
UNKNOWN                 
1 81599U          23020.30697613 -.00000067  00000+0 -10290-4 0  9994
2 81599  67.2979  44.4412 0247874 123.2183 254.5681 13.29490533444412
UNKNOWN                 
1 81605U          23023.53113777  .00002148  00000+0  97436-2 0  9999
2 81605  56.4317 310.8966 0130017 149.9830 210.8628 12.78418835 51243
UNKNOWN                 
1 81614U 76077    23023.06120859  .00005482  00000+0  38766-1 0  9997
2 81614 101.8907  53.4514 0414201 277.7281  77.6942 12.23439017408308
